NORAD_CAT_ID,OBJECT_NAME,OBJECT_TYPE,EPOCH,MEAN_MOTION,ECCENTRICITY,INCLINATION,RA_OF_ASC_NODE,ARG_OF_PERICENTER,MEAN_ANOMALY,BSTAR,MEAN_MOTION_DOT,MEAN_MOTION_DDOT,TLE_LINE0,TLE_LINE1,TLE_LINE2,SEMIMAJOR_AXIS,PERIOD,APOGEE,PERIGEE,DECAYED
50820.0,STARLINK-3339,PAYLOAD,2023-07-11 01:57:09,15.08836459,8.44e-05,53.2162,215.3306,67.6279,292.4803,3.3413e-05,2.44e-06,0.0,0 STARLINK-3339,1 50820U 22001T   23192.08135603  .00000244  00000-0  33413-4 0  9991,2 50820  53.2162 215.3306 0000844  67.6279 292.4803 15.08836459 84851,6917.891,95.438,540.34,539.172,0.0
50820.0,STARLINK-3339,PAYLOAD,2023-07-12 03:23:19,15.08840937,8.9e-05,53.2163,210.5726,66.3293,293.7792,2.1624e-05,5.6e-07,0.0,0 STARLINK-3339,1 50820U 22001T   23193.14119466  .00000056  00000-0  21624-4 0  9990,2 50820  53.2163 210.5726 0000890  66.3293 293.7792 15.08840937 85014,6917.878,95.437,540.358,539.127,0.0
50820.0,STARLINK-3339,PAYLOAD,2023-07-13 17:32:34,15.08837243,8.68e-05,53.2164,203.4356,63.8155,296.2927,3.6997e-05,3.01e-06,0.0,0 STARLINK-3339,1 50820U 22001T   23194.73095779  .00000301  00000-0  36997-4 0  9998,2 50820  53.2164 203.4356 0000868  63.8155 296.2927 15.08837243 85259,6917.889,95.438,540.354,539.153,0.0
50820.0,STARLINK-3339,PAYLOAD,2023-07-15 07:41:50,15.08839343,9.02e-05,53.2164,196.299,67.5988,292.51,5.4064e-05,5.73e-06,0.0,0 STARLINK-3339,1 50820U 22001T   23196.32071810  .00000573  00000-0  54064-4 0  9991,2 50820  53.2164 196.2990 0000902  67.5988 292.5100 15.08839343 85497,6917.882,95.438,540.371,539.123,0.0
50820.0,STARLINK-3339,PAYLOAD,2023-07-16 17:04:55,15.08840533,9.64e-05,53.2164,190.0544,67.6936,292.4159,5.697e-05,6.19e-06,0.0,0 STARLINK-3339,1 50820U 22001T   23197.71175776  .00000619  00000-0  56970-4 0  9990,2 50820  53.2164 190.0544 0000964  67.6936 292.4159 15.08840533 85706,6917.879,95.438,540.411,539.077,0.0
50820.0,STARLINK-3339,PAYLOAD,2023-07-17 23:17:15,15.08838777,9.99e-05,53.2165,184.4042,71.1072,289.0029,1.7597e-05,-8e-08,0.0,0 STARLINK-3339,1 50820U 22001T   23198.97031952 -.00000008  00000-0  17597-4 0  9991,2 50820  53.2165 184.4042 0000999  71.1072 289.0029 15.08838777 85891,6917.884,95.438,540.44,539.058,0.0
50820.0,STARLINK-3339,PAYLOAD,2023-07-19 02:18:48,15.08838449,0.0001027,53.2166,179.3485,76.1212,283.9894,9.5092e-06,-1.36e-06,0.0,0 STARLINK-3339,1 50820U 22001T   23200.09639954 -.00000136  00000-0  95092-5 0  9993,2 50820  53.2166 179.3485 0001027  76.1212 283.9894 15.08838449 86069,6917.885,95.438,540.461,539.04,0.0
50820.0,STARLINK-3339,PAYLOAD,2023-07-19 21:23:27,15.08832245,9.56e-05,53.2158,175.7798,82.0528,278.0572,5.6721e-06,-1.97e-06,0.0,0 STARLINK-3339,1 50820U 22001T   23200.89128509 -.00000197  00000-0  56721-5 0  9993,2 50820  53.2158 175.7798 0000956  82.0528 278.0572 15.08832245 86182,6917.904,95.438,540.43,539.108,0.0
50820.0,STARLINK-3339,PAYLOAD,2023-07-20 22:49:37,15.08833004,0.0001104,53.2168,171.0221,95.515,264.5968,3.3283e-05,2.42e-06,0.0,0 STARLINK-3339,1 50820U 22001T   23201.95112760  .00000242  00000-0  33283-4 0  9990,2 50820  53.2168 171.0221 0001104  95.5150 264.5968 15.08833004 86340,6917.902,95.438,540.531,539.003,0.0
50820.0,STARLINK-3339,PAYLOAD,2023-07-23 22:21:59,15.08835092,0.0001402,53.2187,157.6369,87.2594,272.8558,-2.8544e-05,-7.42e-06,0.0,0 STARLINK-3339,1 50820U 22001T   23204.93193296 -.00000742  00000-0 -28544-4 0  9995,2 50820  53.2187 157.6369 0001402  87.2594 272.8558 15.08835092 85519,6917.895,95.438,540.73,538.791,0.0
50820.0,STARLINK-3339,PAYLOAD,2023-07-25 06:09:41,15.08840146,0.0001415,53.2185,151.6902,80.3557,279.7595,2.6515e-05,1.34e-06,0.0,0 STARLINK-3339,1 50820U 22001T   23206.25673015  .00000134  00000-0  26515-4 0  9993,2 50820  53.2185 151.6902 0001415  80.3557 279.7595 15.08840146 85716,6917.88,95.438,540.724,538.766,0.0
50820.0,STARLINK-3339,PAYLOAD,2023-07-26 06:00:28,15.08839269,0.0001621,53.2189,147.2303,76.6744,283.4429,7.3914e-05,8.88e-06,0.0,0 STARLINK-3339,1 50820U 22001T   23207.25033183  .00000888  00000-0  73914-4 0  9991,2 50820  53.2189 147.2303 0001621  76.6744 283.4429 15.08839269 85869,6917.883,95.438,540.869,538.626,0.0
50820.0,STARLINK-3339,PAYLOAD,2023-07-27 02:40:28,15.08847722,0.0001038,53.2158,143.3681,89.8612,270.2499,6.8056e-05,7.96e-06,0.0,0 STARLINK-3339,1 50820U 22001T   23208.11144246  .00000796  00000-0  68056-4 0  9999,2 50820  53.2158 143.3681 0001038  89.8612 270.2499 15.08847722 87274,6917.857,95.437,540.44,539.004,0.0
50820.0,STARLINK-3339,PAYLOAD,2023-07-27 04:15:51,15.08850362,0.0001252,53.2165,143.0703,92.5879,267.5256,9.5575e-05,1.234e-05,0.0,0 STARLINK-3339,1 50820U 22001T   23208.17768033  .00001234  00000-0  95575-4 0  9995,2 50820  53.2165 143.0703 0001252  92.5879 267.5256 15.08850362 86002,6917.849,95.437,540.58,538.848,0.0
50820.0,STARLINK-3339,PAYLOAD,2023-07-28 00:55:54,15.08828935,0.0001215,53.2172,139.2042,93.3026,266.8105,-7.2985e-05,-1.449e-05,0.0,0 STARLINK-3339,1 50820U 22001T   23209.03882222 -.00001449  00000-0 -72985-4 0  9998,2 50820  53.2172 139.2042 0001215  93.3026 266.8105 15.08828935 87417,6917.914,95.438,540.62,538.939,0.0
50820.0,STARLINK-3339,PAYLOAD,2023-07-28 04:06:40,15.08829263,0.0001101,53.2164,138.6099,80.7195,279.3922,-6.1691e-05,-1.269e-05,0.0,0 STARLINK-3339,1 50820U 22001T   23209.17130274 -.00001269  00000-0 -61691-4 0  9998,2 50820  53.2164 138.6099 0001101  80.7195 279.3922 15.08829263 86155,6917.913,95.438,540.54,539.017,0.0
50820.0,STARLINK-3339,PAYLOAD,2023-07-28 18:25:08,15.0883665,9.38e-05,53.2166,135.9335,84.0054,276.1045,1.2168e-06,-2.68e-06,0.0,0 STARLINK-3339,1 50820U 22001T   23209.76745774 -.00000268  00000-0  12168-5 0  9993,2 50820  53.2166 135.9335 0000938  84.0054 276.1045 15.08836650 87529,6917.891,95.438,540.405,539.107,0.0
50820.0,STARLINK-3339,PAYLOAD,2023-07-29 02:22:03,15.08853338,0.000104,53.2173,134.4484,84.0601,276.0509,5.1983e-05,5.4e-06,0.0,0 STARLINK-3339,1 50820U 22001T   23210.09864626  .00000540  00000-0  51983-4 0  9998,2 50820  53.2173 134.4484 0001040  84.0601 276.0509 15.08853338 87570,6917.84,95.437,540.424,538.985,0.0
50820.0,STARLINK-3339,PAYLOAD,2023-07-29 18:15:55,15.08830435,0.0001333,53.2169,131.4746,80.7159,279.3984,0.00014115,1.959e-05,0.0,0 STARLINK-3339,1 50820U 22001T   23210.76106190  .00001959  00000-0  14115-3 0  9997,2 50820  53.2169 131.4746 0001333  80.7159 279.3984 15.08830435 87676,6917.91,95.438,540.697,538.852,0.0
50820.0,STARLINK-3339,PAYLOAD,2023-07-30 03:48:14,15.08839385,0.0001392,53.2165,129.6905,79.944,280.1709,0.00018684,2.687e-05,0.0,0 STARLINK-3339,1 50820U 22001T   23211.15849859  .00002687  00000-0  18684-3 0  9991,2 50820  53.2165 129.6905 0001392  79.9440 280.1709 15.08839385 87731,6917.882,95.438,540.71,538.784,0.0
50820.0,STARLINK-3339,PAYLOAD,2023-07-31 11:35:56,15.08846542,0.0001323,53.2164,123.7429,84.1737,275.9406,7.2946e-05,8.73e-06,0.0,0 STARLINK-3339,1 50820U 22001T   23212.48329669  .00000873  00000-0  72946-4 0  9997,2 50820  53.2164 123.7429 0001323  84.1737 275.9406 15.08846542 87938,6917.86,95.437,540.641,538.81,0.0
50820.0,STARLINK-3339,PAYLOAD,2023-08-02 00:09:49,15.08841133,0.0001369,53.2169,116.9051,85.0202,275.0947,2.7805e-05,1.55e-06,0.0,0 STARLINK-3339,1 50820U 22001T   23214.00682186  .00000155  00000-0  27805-4 0  9990,2 50820  53.2169 116.9051 0001369  85.0202 275.0947 15.08841133 88163,6917.877,95.437,540.689,538.795,0.0
50820.0,STARLINK-3339,PAYLOAD,2023-08-03 00:00:35,15.08853154,0.0001157,53.216,112.4437,90.8364,269.2761,3.6493e-05,2.93e-06,0.0,0 STARLINK-3339,1 50820U 22001T   23215.00041526  .00000293  00000-0  36493-4 0  9994,2 50820  53.2160 112.4437 0001157  90.8364 269.2761 15.08853154 88313,6917.84,95.437,540.506,538.905,0.0
50820.0,STARLINK-3339,PAYLOAD,2023-08-04 01:26:46,15.08842457,0.0001056,53.2162,107.6861,94.9679,265.1433,0.00010899,1.447e-05,0.0,0 STARLINK-3339,1 50820U 22001T   23216.06026166  .00001447  00000-0  10899-3 0  9997,2 50820  53.2162 107.6861 0001056  94.9679 265.1433 15.08842457 88476,6917.873,95.437,540.468,539.007,0.0
50820.0,STARLINK-3339,PAYLOAD,2023-08-06 01:08:20,15.08860595,0.0001106,53.2163,98.7627,88.6349,271.477,0.00041509,6.328e-05,0.0,0 STARLINK-3339,1 50820U 22001T   23218.04745500  .00006328  00000-0  41509-3 0  9992,2 50820  53.2163  98.7627 0001106  88.6349 271.4770 15.08860595 88777,6917.817,95.436,540.448,538.917,0.0
50820.0,STARLINK-3339,PAYLOAD,2023-08-06 09:05:16,15.08837438,0.0001037,53.217,97.276,94.2615,265.8495,-4.962e-05,-1.077e-05,0.0,0 STARLINK-3339,1 50820U 22001T   23218.37866219 -.00001077  00000-0 -49620-4 0  9990,2 50820  53.2170  97.2760 0001037  94.2615 265.8495 15.08837438 88826,6917.888,95.438,540.471,539.036,0.0
50820.0,STARLINK-3339,PAYLOAD,2023-08-07 00:59:08,15.08827319,0.0001074,53.2164,94.3029,97.5991,262.5124,-0.00016393,-2.895e-05,0.0,0 STARLINK-3339,1 50820U 22001T   23219.04107044 -.00002895  00000-0 -16393-3 0  9998,2 50820  53.2164  94.3029 0001074  97.5991 262.5124 15.08827319 88920,6917.919,95.438,540.527,539.041,0.0
50820.0,STARLINK-3339,PAYLOAD,2023-08-07 08:56:04,15.08832963,0.0001007,53.2159,92.8174,104.7258,255.3845,0.00025215,3.727e-05,0.0,0 STARLINK-3339,1 50820U 22001T   23219.37227118  .00003727  00000-0  25215-3 0  9995,2 50820  53.2159  92.8174 0001007 104.7258 255.3845 15.08832963 88977,6917.902,95.438,540.464,539.07,0.0
50820.0,STARLINK-3339,PAYLOAD,2023-08-07 21:39:09,15.08850955,9.34e-05,53.2153,90.4385,111.5013,248.6079,0.00097103,0.00015204,0.0,0 STARLINK-3339,1 50820U 22001T   23219.90219112  .00015204  00000-0  97103-3 0  9997,2 50820  53.2153  90.4385 0000934 111.5013 248.6079 15.08850955 89057,6917.847,95.437,540.358,539.066,0.0
50820.0,STARLINK-3339,PAYLOAD,2023-08-08 08:46:51,15.08856605,8e-05,53.2161,88.3562,110.045,250.0629,0.00086577,0.00013524,0.0,0 STARLINK-3339,1 50820U 22001T   23220.36586918  .00013524  00000-0  86577-3 0  9996,2 50820  53.2161  88.3562 0000800 110.0450 250.0629 15.08856605 89124,6917.83,95.437,540.248,539.141,0.0
